#dP2023 10 23  0  0  0.00000000      96 __u+U IGS20 FIT  IAC
## 2285  86400.00000000   900.00000000 60240 0.0000000000000
+  119   C06C07C08C09C10C11C12C13C14C16C19C20C21C22C23C24C25
+        C26C27C28C29C30C32C33C34C35C36C37C38C39C40C41C42C43
+        C44C45C46E02E03E04E05E07E08E09E10E11E12E13E14E15E19
+        E21E24E25E26E27E30E31E33E34E36G01G02G03G04G05G06G07
+        G08G09G10G11G12G13G14G15G16G17G18G19G20G21G22G23G24
+        G25G26G27G28G29G30G31G32J02J03J04R01R02R03R04R05R07
+        R08R09R11R12R13R14R15R16R17R18R19R20R21R22R24R25R26
++         9  8  9  9  7  8  7  9  6  9  7  7  7  7  6  8  5
++         6  7  6  8  7  6  6  7  8  8  8 10  9  8  7  6  6
++         7  7  7  6  5  7  6  5  5  6  6  6  5  5  6  6  6
++         6  6  5  6  5  7  7  6  6  6  6  5  7  6  6  6  6
++         6  6  5  6  6  5  5  5  5  5  5  5  6  5  5  5  5
++         5  6  6  6  5  6  5  6  7  8  8  7  7  6  4  5  5
++         6  6  6  8  5  5  6  6  7  7  7  7  6  5  5  7  5
%c M  cc GPS ccc cccc cccc cccc cccc ccccc ccccc ccccc ccccc
%c cc cc ccc ccc cccc cccc cccc cccc ccccc ccccc ccccc ccccc
%f  0.0000000  0.000000000  0.00000000000  0.000000000000000
%f  0.0000000  0.000000000  0.00000000000  0.000000000000000
%i    0    0    0    0      0      0      0      0         0
%i    0    0    0    0      0      0      0      0         0
/* INFORMATION & ANALYSIS CENTER (IAC)      ULTRA-RAPID DATA
/* S/V CLOCKS ARE ALIGNED TO GNSS TIME                      
/* G:C1WC2W R:C1PC2P E:C1XC5X C:C2IC6I J:C1CC2S             
/* PCV:IGS20_2280 OL/AL:FES2004  NONE     YN ORB:CoN CLK:CoN
*  2023 10 23 23 15  0.00000000
PC06 -17585.235559  29764.368459 -24285.645683     67.611705
PC07  -6921.837482  39166.966965 -13607.258244   -205.448077
PC08  -2520.630422  21466.329341  36218.762959    280.568817
PC09 -10943.637630  28483.027979 -28925.255374      3.226518
PC10   -110.716189  41335.168148  -6365.049680      8.485002
PC11 -17409.935124  -3106.399312 -21505.275047    219.212829
PC12  -1623.415557 -18062.549423 -21168.800904    885.902694
PC13   3896.745234  25002.172590  33942.263883    372.118740
PC14 -16528.631707 -13600.119413  17937.247322    644.481181
PC16 -22633.849073  29106.679486 -20497.205227   -140.283008
PC19  16537.825089   3135.502857 -22240.517800   -973.067174
PC20  14360.380587  20536.846548 -12254.554146    178.275144
PC21  -3229.903877 -27050.747897  -6082.738235   -969.160738
PC22   9357.536763 -17074.961342 -20008.956595   -254.195516
PC23 -18942.666270   8879.549075 -18460.580173   -837.423014
PC24 -19823.493293 -14737.160282  12943.722282    524.515262
PC25 -27351.644838  -2898.149954  -4655.519004    239.539891
PC26  -2045.413030 -16825.406300  22147.117710   -195.988024
PC27  -6062.327999  21957.964603  16107.570311    217.782633
PC28 -18962.487474  20416.525041   1470.598077    164.007966
PC29  21616.677794  -6410.726249  16444.672617    191.756232
PC30  10738.375243  11944.072890  22817.485844     -7.024629
PC32   3342.551881  26997.263454   6217.161073   -531.010604
PC33 -16609.196563  -3177.179628  22194.949653   -951.029315
PC34 -11969.829533 -10714.310405 -22825.955706    287.675070
PC35  18124.366697 -21140.861277  -1554.722454    518.726384
PC36  27338.267298   4123.792975   3863.101582   -166.204705
PC37    864.715921  16765.009605 -22285.462739   -862.689225
PC38 -11864.017687  19506.540799  35473.055466    113.084049
PC39 -24955.846499  30006.000901 -16242.803238     -5.362121
PC40 -11696.536370  36526.818340 -17190.429618    -41.248578
PC41  -9790.037070  16410.001606  20380.734702   -872.143754
PC42 -13879.485721 -21608.833593  10975.159866   -514.909045
PC43 -21467.849457   5483.779714 -16980.083481     45.243308
PC44   5283.144769 -22287.306602 -15933.138882    270.849270
PC45  18488.589495  -9081.688629  18836.987570    -39.101546
PC46  20767.427852  14275.691132 -12037.465073    -94.175879
PE02 -14655.031676   8651.876579 -24217.015750     72.511302
PE03 -16438.207099  20315.172796  13883.454599    -67.599895
PE04   5771.934409 -28727.381206   4186.574564   -241.114157
PE05 -17539.492741    157.241668  23839.281888     30.361845
PE07   8107.847437  20570.213002 -19680.582019    -83.890157
PE08  -6117.858289  28719.735925  -3710.765169   -165.988414
PE09  -7911.850055 -20656.372624  19668.603105   -202.096691
PE10  -4007.605121 -15486.991169 -24908.353747   -573.422449
PE11 -15563.155019 -11356.600147 -22479.789605   3128.300817
PE12   6937.369673 -16976.343733 -23233.235263   -748.424980
PE13  14841.308544  11627.909316  22825.538580    -19.632814
PE14 -19573.672419   6192.440881 -19092.307640    377.236074
PE15  -7461.693967  16930.826193  23111.383789    -63.631670
PE19  17175.636569 -18163.801130 -15847.327988  -1363.032733
PE21  23296.130522   9322.943558  15708.230952   -560.194069
PE24 -18394.811348 -22998.134985   2840.972784   -392.162161
PE25 -23337.143735  -9658.800731 -15421.319059     -3.679294
PE26  28345.552896   -777.148768   8519.635269    260.015228
PE27  18794.821752  22756.522517  -2333.574827   -182.008827
PE30   2823.013639  22532.742657 -19000.711147   -604.032079
PE31  -3252.111096 -22626.068080  18811.973218     -8.409192
PE33  25442.506680 -11952.798637  -9293.708000      0.880280
PE34 -25046.886426  12288.253869   9861.976242    -74.020893
PE36 -28131.677544    396.492590  -9191.481209   -134.072895
PG01  -2898.585322 -14426.175312 -22453.277393    163.451294
PG02   4157.658682 -15908.068346 -20314.639110   -538.249685
PG03 -10150.921509 -22082.464779 -10984.243966    -60.437493
PG04  -1138.449511 -23210.263536  12750.943453    192.922912
PG05  -2170.517353  17193.485631  19920.242633   -147.648035
PG06 -25935.477337   5921.649954    811.668846    523.738409
PG07 -19958.151163  -7719.581425  16504.937238     32.396095
PG08   4709.655699 -25678.275221  -3572.519191   -148.613908
PG09  -9314.499703 -15910.175958  19012.716082    -23.858004
PG10  20333.020505   6557.619572 -15804.631915    -58.533179
PG11 -20092.115039  12091.814015  12437.860368   -428.642104
PG12   6567.536264  22542.831643 -12763.684664   -439.178961
PG13 -13448.966552  22462.419641   3522.621039    587.382592
PG14 -20945.309916  -9686.741163 -13276.309190    222.708767
PG15   -596.633933  26062.220508  -4886.226515     90.054848
PG16   8862.657379 -12677.369651  21221.376637   -434.235272
PG17 -15499.260260     50.620602 -21149.105137    723.744636
PG18  21164.383010   6130.173853  14971.286576   -457.946311
PG19 -17361.800914   8434.546788 -18283.873034    389.071475
PG20 -12774.838438   9374.088736  21337.930826    405.290091
PG21   7260.581851 -16141.647566 -18982.149384    146.066182
PG22 -18597.624661  -3793.381299 -18008.969993     97.268480
PG23  20562.828797  16117.193673  -5289.565169     87.326686
PG24  -1454.142445  16690.683580 -20924.617105   -353.717389
PG25  17172.178941  20384.219917  -2029.203111    474.138235
PG26  16508.203247  -4954.396483  20162.245218    221.363997
PG27  12778.193941 -21347.181727   8422.921269    -59.615856
PG28  25933.361747  -5557.308087  -1472.799748    -31.212801
PG29   7465.652198  16538.496748  19315.604925   -610.167664
PG30 -25529.592479   -508.811584   7911.448181   -475.628110
PG31  23644.490383  -9991.100344   7420.586963   -224.983400
PG32  16257.899736  -4681.231723 -20240.131861   -576.703375
PJ02 -20739.763376  21383.590251 -25281.213749     -6.237471
PJ03 -30263.306292  28708.758986  11377.498448     -5.954040
PJ04 -26661.312213  27362.508913  23747.163297     71.492501
PR01    765.333414 -24359.722259  -7544.888660     68.305727
PR02  -6711.185987 -22248.038346  10472.063026    -22.369614
PR03 -11002.953961  -7202.447484  21882.479693     87.660711
PR04  -8920.630753  11260.975983  21105.140883    208.102047
PR05  -2276.541076  23807.731686   8919.625725    121.100521
PR07  11008.985666   6450.297940 -22064.899919     67.541093
PR08   8868.557479 -11490.750573 -20912.772371    -73.035440
PR09  16570.585427  14166.594099 -13158.178178    149.297244
PR11  18357.642083   -993.845005  17685.145194   -206.917260
PR12    766.525603 -11611.494832  22722.524309     32.676290
PR13 -14793.729995 -14392.493952  14973.277523    -40.505051
PR14 -23717.981581  -8700.114555  -3582.838074     25.460087
PR15 -17478.120527   1782.232406 -18475.363244     85.173168
PR16   -957.442551  11347.393560 -22812.044302     19.957433
PR17 -18190.857751   2854.409816 -17614.956411     28.461272
PR18 -21699.494240  13114.293158  -2968.884283    108.366505
PR19 -15640.930443  16245.201680  11914.288760   -251.968055
PR20   3170.399955  10195.311382  23180.936949   -102.336564
PR21  18641.894075  -3382.874430  17102.970757    -47.848763
PR22  21961.157048 -12814.816330   2026.811777     90.100898
PR24  -4389.797342 -10094.902029 -22989.613879    -29.378630
PR25  18470.174256  -1889.476469  17513.309457     -6.088768
PR26   8953.698769 -11050.243102 -21164.678926    -19.559628
EOF
